0 SL-16 DEB
1 22608U 93016S   13281.83152396 -.00000026  00000-0  14855-4 0  9861
2 22608 071.0042 057.1385 0129533 053.0846 056.5280 13.84402274 37700
0 SL-16 DEB
1 22608U 93016S   13284.13182350 -.00000031  00000-0  10195-4 0  9870
2 22608 071.0047 052.5471 0129654 049.7334 000.8991 13.84402715 38025
0 SL-16 DEB
1 22608U 93016S   13286.15602896 -.00000041  00000-0  21689-5 0  9889
2 22608 071.0052 048.5069 0129736 046.7712 009.2705 13.84402790 38307
0 SL-16 DEB
1 22608U 93016S   13288.47931697 -.00000009  00000-0  29143-4 0  9897
2 22608 071.0055 043.8701 0129835 043.3748 068.2286 13.84402673 38627
0 SL-16 DEB
1 22608U 93016S   13290.50490876  .00000008  00000-0  43202-4 0  9905
2 22608 071.0055 039.8275 0129933 040.4154 083.5058 13.84402728 38905
0 SL-16 DEB
1 22608U 93016S   13292.52849539  .00000012  00000-0  46737-4 0  9915
2 22608 071.0054 035.7889 0130032 037.4644 088.7847 13.84402943 39185
0 SL-16 DEB
1 22608U 93016S   13294.54451769 -.00000004  00000-0  32987-4 0  9928
2 22608 071.0054 031.7652 0130143 034.5197 056.3685 13.84403216 39469
